ES'HAIL 2               
1 43700U 18090A   24013.08920926  .00000152  00000+0  00000+0 0  9994
2 43700   0.0216  53.8770 0002313 285.8747 190.2344  1.00268580 19031
FOX-1CLIFF (AO-95)      
1 43770U 18099N   24012.91635255  .00009684  00000+0  72504-3 0  9990
2 43770  97.5697  74.2638 0014552 172.1077 188.0380 15.02843578279074
ITASAT                  
1 43786U 18099AE  24012.74027726  .00006417  00000+0  49413-3 0  9990
2 43786  97.5336  74.5301 0019182 154.3569 205.8611 15.01844052279075
JY1SAT (JO-97)          
1 43803U 18099AX  24012.72124771  .00010357  00000+0  75135-3 0  9994
2 43803  97.5442  75.0888 0011490 115.0971 245.1448 15.04044720279155
UWE-4                   
1 43880U 18111E   24012.68790478  .00011583  00000+0  80052-3 0  9998
2 43880  97.6234 279.9151 0017335 177.0871 183.0460 15.05768422275859
JAISAT-1                
1 44419U 19038F   24012.94969907  .00066217  00000+0  12993-2 0  9992
2 44419  97.6837   9.1145 0007028 271.1751  88.8693 15.47086417250760
DUCHIFAT-3              
1 44854U 19089C   24013.10850143  .00014941  00000+0  87830-3 0  9991
2 44854  36.9595 272.4676 0009725 259.1733 100.7917 15.11016983224548
TIANYAN 01              
1 44881U 19093C   24013.15940316  .00001643  00000+0  20749-3 0  9994
2 44881  97.8444  92.9220 0015848 111.0366 249.2544 14.83160620219914
RS-44 & BREEZE-KM R/B   
1 44909U 19096E   24013.06244164  .00000043  00000+0  12219-3 0  9992
2 44909  82.5198 208.4875 0218241  56.4123 305.7603 12.79725811189054
BY70-2                  
1 45857U 20042B   24013.22433894  .00047601  00000+0  34539-2 0  9995
2 45857  97.9229 100.5409 0007139  23.8110 336.3444 15.03707529190942
SALSAT                  
1 46495U 20068K   24012.86600683  .00007581  00000+0  46394-3 0  9999
2 46495  97.7983 328.7746 0016251 122.7429 237.5369 15.10405246180699
RADFXSAT-2 (AO-109)     
1 47311U 21002C   24012.94846250  .00103120  00000+0  12424-2 0  9999
2 47311  60.6750 321.9836 0028504  61.0440 299.3517 15.59682040166748
UVSQ-SAT                
1 47438U 21006AB  24012.70938713  .00031458  00000+0  95873-3 0  9997
2 47438  97.3545  72.7121 0009142  61.9476 298.2690 15.33866407164651
LEDSAT                  
1 49069U 21073D   24013.15412648  .00016253  00000+0  76959-3 0  9997
2 49069  97.4591  85.8804 0022745 109.9614 250.4073 15.19183700132729
XW-3 (CAS-9)            
1 50466U 21131B   24013.21441587  .00001031  00000+0  34620-3 0  9993
2 50466  98.5389  99.0170 0003537 220.6700 139.4223 14.39293589107562
TEVEL-3                 
1 50988U 22002E   24013.14096155  .00048492  00000+0  12729-2 0  9996
2 50988  97.4058  85.1135 0005081 201.7362 158.3669 15.38469607110888
TEVEL-8                 
1 50989U 22002F   24013.17027177  .00050882  00000+0  13392-2 0  9991
2 50989  97.4077  85.2245 0004981 200.1255 159.9794 15.38375468110882
TEVEL-5                 
1 50998U 22002Q   24013.19257719  .00051667  00000+0  12848-2 0  9997
2 50998  97.4054  85.8934 0005923 194.5326 165.5751 15.40108175110945
TEVEL-6                 
1 50999U 22002R   24013.19226398  .00050540  00000+0  12581-2 0  9990
2 50999  97.4052  85.8805 0005891 194.3668 165.7411 15.40082048110947
TEVEL-1                 
1 51013U 22002AF  24013.15905738  .00050691  00000+0  13336-2 0  9992
2 51013  97.4050  85.0329 0004924 201.1187 158.9855 15.38390498110882
TEVEL-7                 
1 51062U 22002CG  24013.16675618  .00050631  00000+0  13301-2 0  9994
2 51062  97.4070  85.1908 0005037 200.3137 159.7909 15.38434495110889
TEVEL-4                 
1 51063U 22002CH  24013.18448391  .00050978  00000+0  13452-2 0  9994
2 51063  97.4070  85.1600 0004936 199.7870 160.3184 15.38295732110883
TEVEL-2                 
1 51069U 22002CP  24013.14135675  .00051031  00000+0  13383-2 0  9998
2 51069  97.4056  85.0811 0005010 201.8921 158.2111 15.38485697110889
GREENCUBE               
1 53106U 22080B   24008.96757248 -.00000003  00000+0  00000+0 0  9991
2 53106  70.1365 248.1941 0008281 140.2235 219.9032  6.42557590 34976
CYCLOPS (RS29S)         
1 53373U 22096D   24013.13369768  .00194490  00000+0  16194-2 0  9992
2 53373  97.3975 290.1379 0004970  95.3595 264.8234 15.69503934 80215
MONITOR-1 (RS32S)       
1 53374U 22096E   24013.17184362  .00153428  00000+0  15387-2 0  9991
2 53374  97.3913 289.3152 0005387  95.9499 264.2374 15.65006396 80179
KUZBASS-300 (RS34S)     
1 53375U 22096F   24013.18845264  .00078051  00000+0  12029-2 0  9996
2 53375  97.4001 287.6363 0004316  88.4820 271.6928 15.53900982 80055
UTMN (RS23S)            
1 53376U 22096G   24013.18910410  .00086325  00000+0  12224-2 0  9993
2 53376  97.3978 288.0624 0004048  93.5441 266.6277 15.56191537 80086
MIET-AIS (RS28S)        
1 53377U 22096H   24013.15675963  .00068690  00000+0  11492-2 0  9993
2 53377  97.4017 287.2607 0003674  87.3294 272.8378 15.51652128 80023
KAI-1 (RS26S)           
1 53378U 22096J   24013.14353770  .00047969  00000+0  93709-3 0  9990
2 53378  97.4054 286.2790 0003503  90.3893 269.7758 15.47316863 79952
ISOI (RS19S)            
1 53381U 22096M   24013.15816863  .00069777  00000+0  11131-2 0  9991
2 53381  97.4035 287.8349 0003997  62.5744 297.5915 15.52978851 80060
CUBESX-HSE-2 (RS21S)    
1 53383U 22096P   24013.15275746  .00084836  00000+0  12160-2 0  9998
2 53383  97.3985 288.2853 0004759  59.5528 300.6196 15.55863216 80094
SIREN (RS30S)           
1 53384U 22096Q   24013.19228608  .00058019  00000+0  10273-2 0  9995
2 53384  97.4023 287.2312 0004279  58.5436 301.6233 15.50091492 80022
GEOSCAN-EDELVEIS (RS20S)
1 53385U 22096R   24012.62860764  .00244389  00000+0  15769-2 0  9990
2 53385  97.3945 290.9100 0005340  75.1521 285.0336 15.75410961 80258
CAS-5A (FO-118)         
1 54684U 22167C   24013.20150270  .00023536  00000+0  10561-2 0  9995
2 54684  97.5848 155.7093 0011599 333.1695  26.8939 15.21135330 60529
STRATOSAT-TK 1 (RS52S)  
1 57167U 23091B   24013.19707454  .00013452  00000+0  89056-3 0  9993
2 57167  97.6371  67.1257 0015293 295.4012  64.5632 15.07358699 30026
UMKA 1 (RS40S)          
1 57172U 23091G   24013.16827294  .00007079  00000+0  49669-3 0  9995
2 57172  97.6359  66.8553 0016437 294.8362  65.1155 15.05372934 30006
CUBESX-HSE 3 (RS42S)    
1 57178U 23091N   24013.15170781  .00009047  00000+0  62439-3 0  9999
2 57178  97.6408  66.9739 0017001 289.4932  70.4458 15.05897953 30003
MONITOR-4 (RS57S)       
1 57182U 23091S   24013.16938612  .00008578  00000+0  59617-3 0  9992
2 57182  97.6381  66.9210 0017469 290.0876  69.8471 15.05645391 30009
MONITOR-2 (RS39S)       
1 57184U 23091U   24013.16021153  .00006055  00000+0  42110-3 0  9995
2 57184  97.6398  67.0978 0013493 283.8707  76.1018 15.05799068 30018
SVYATOBOR 1 (RS60S)     
1 57187U 23091X   24013.16736234  .00008138  00000+0  55263-3 0  9998
2 57187  97.6394  67.2449 0013139 281.5299  78.4452 15.06582124 30022
VIZARD-METEO (RS38S)    
1 57189U 23091Z   24013.16586324  .00009905  00000+0  65770-3 0  9990
2 57189  97.6388  67.3810 0012072 279.6083  80.3780 15.07365489 30035
NANOZOND 1 (RS49S)      
1 57190U 23091AA  24013.15284830  .00012974  00000+0  83328-3 0  9997
2 57190  97.6371  67.4830 0010534 286.3022  73.7047 15.08536865 30043
POLYTECH-UNIVERSE 3 (R*)
1 57191U 23091AB  24013.15311353  .00006072  00000+0  42318-3 0  9995
2 57191  97.6368  66.8703 0019158 301.6948  58.2410 15.05641710 30002
UTMN 2 (RS27S)          
1 57203U 23091AP  24013.11944926  .00007856  00000+0  52628-3 0  9999
2 57203  97.6389  67.2881 0012142 280.1780  79.8077 15.07108386 30021
ARCCUBE 1 (RS25S)       
1 57205U 23091AR  24013.13682165  .00014213  00000+0  90290-3 0  9999
2 57205  97.6350  67.4584 0010615 288.5618  71.4457 15.08915874 30049
KUZGTU 1 (RS47S)        
1 57217U 23091AV  24013.15086197  .00008762  00000+0  60568-3 0  9994
2 57217  97.6383  66.9114 0016881 290.8811  69.0608 15.05849118 30004
HADES-D (SO-121)        
1 58567U 23174CY  24012.92104139  .00031035  00000+0  16059-2 0  9990
2 58567  97.4758  89.8354 0015877  58.4230 301.8551 15.16063810 10016
CUTE-1 (CO-55)          
1 27844U 03031E   24012.93987502  .00000623  00000+0  29583-3 0  9994
2 27844  98.6787  22.1626 0008888 234.3553 125.6798 14.23032607 65566
CUBESAT XI-IV (CO-57)   
1 27848U 03031J   24012.95519330  .00000532  00000+0  25784-3 0  9998
2 27848  98.6820  22.5040 0008648 251.7543 108.2694 14.22507699 65321
CUBESAT XI-V            
1 28895U 05043F   24012.31706890  .00003103  00000+0  56524-3 0  9998
2 28895  98.1780 148.2809 0016893 130.5749 229.6928 14.66694715971458
CUTE-1.7+APD II (CO-65) 
1 32785U 08021C   24012.52703839  .00007287  00000+0  67893-3 0  9991
2 32785  97.7358 339.6412 0013153 122.0506 238.1993 14.94490360852069
AAUSAT-II               
1 32788U 08021F   24012.88677858  .00020756  00000+0  12774-2 0  9997
2 32788  97.5822 353.7457 0007303  14.7480 345.3961 15.10014996854783
SEEDS II (CO-66)        
1 32791U 08021J   24012.90640347  .00010402  00000+0  83615-3 0  9997
2 32791  97.6794 345.5434 0009895  79.1460 281.0876 15.00160410853143
SWISSCUBE               
1 35932U 09051B   24012.90966608  .00001959  00000+0  43292-3 0  9996
2 35932  98.4929 252.9767 0008557  80.3022 279.9142 14.58416995759774
BEESAT-1                
1 35933U 09051C   24012.61608570  .00001693  00000+0  37715-3 0  9994
2 35933  98.4857 253.7781 0006799  91.9612 268.2365 14.58235835759881
ITUPSAT1                
1 35935U 09051E   24012.65856771  .00001546  00000+0  35268-3 0  9996
2 35935  98.4957 253.6826 0009041  97.4846 262.7379 14.57238314759468
TISAT 1                 
1 36799U 10035E   24012.60287515  .00009736  00000+0  80158-3 0  9995
2 36799  98.1056 255.4871 0009422   7.7815 352.3551 14.99278133733770
